<?xml version="1.0" encoding="UTF-8"?>
<kml xmlns="http://www.opengis.net/kml/2.2">
  <Document>
    <name>219Labs</name>
    <description>Marketing digital, desarrollo web, software a medida, automatizaciones y contenido para negocios en Argentina.</description>
    <Placemark>
      <name>219Labs - Tucumán, Argentina</name>
      <description>Agencia digital y estudio de desarrollo con base en San Miguel de Tucumán y alcance nacional.</description>
      <Point>
        <coordinates>-65.2226,-26.8241,0</coordinates>
      </Point>
    </Placemark>
  </Document>
</kml>
